[{"norad_id":"48054","company":"ONEWEB","tle_line2":"2 48054  87.8960  31.6650 0001625  81.0200 279.1113 13.13479375206428","launch_date":"2021-03-25","type":"LEO","tle_line1":"1 48054U 21025N   25173.57005748  .00001074  00000+0  29063-2 0  9998","satellite_name":"ONEWEB-0158"},{"norad_id":"48055","company":"ONEWEB","tle_line2":"2 48055  87.8960  31.6715 0002155  74.9849 285.1519 13.13468730206363","launch_date":"2021-03-25","type":"LEO","tle_line1":"1 48055U 21025P   25173.59546408  .00000266  00000+0  69317-3 0  9993","satellite_name":"ONEWEB-0157"},{"norad_id":"48056","company":"ONEWEB","tle_line2":"2 48056  87.8961  31.6739 0001800  81.7543 278.3791 13.13469024206312","launch_date":"2021-03-25","type":"LEO","tle_line1":"1 48056U 21025Q   25173.57161994 -.00000066  00000+0 -21539-3 0  9999","satellite_name":"ONEWEB-0162"},{"norad_id":"48057","company":"ONEWEB","tle_line2":"2 48057  87.8960  31.6808 0002002  84.5989 275.5368 13.13469146206470","launch_date":"2021-03-25","type":"LEO","tle_line1":"1 48057U 21025R   25173.57853500  .00000099  00000+0  23501-3 0  9996","satellite_name":"ONEWEB-0155"},{"norad_id":"48058","company":"ONEWEB","tle_line2":"2 48058  87.8962  31.7929 0001635  78.0039 282.1274 13.13468897206206","launch_date":"2021-03-25","type":"LEO","tle_line1":"1 48058U 21025S   25172.99111934  .00000210  00000+0  53931-3 0  9995","satellite_name":"ONEWEB-0149"},{"norad_id":"48059","company":"ONEWEB","tle_line2":"2 48059  87.8962  31.7016 0001694  62.5589 297.5712 13.13469612206402","launch_date":"2021-03-25","type":"LEO","tle_line1":"1 48059U 21025T   25173.56329421 -.00000252  00000+0 -72399-3 0  9999","satellite_name":"ONEWEB-0148"},{"norad_id":"48060","company":"ONEWEB","tle_line2":"2 48060  87.8962  31.6953 0001453 111.9531 248.1753 13.13468489206354","launch_date":"2021-03-25","type":"LEO","tle_line1":"1 48060U 21025U   25173.58022764  .00000276  00000+0  72009-3 0  9995","satellite_name":"ONEWEB-0160"},{"norad_id":"48061","company":"ONEWEB","tle_line2":"2 48061  87.8962  31.6797 0002031  79.5960 280.5398 13.13470832206472","launch_date":"2021-03-25","type":"LEO","tle_line1":"1 48061U 21025V   25173.56500276 -.00000215  00000+0 -62315-3 0  9997","satellite_name":"ONEWEB-0163"}]